COMMENT,ORIGINATOR,NORAD_CAT_ID,OBJECT_NAME,OBJECT_TYPE,CLASSIFICATION_TYPE,INTLDES,EPOCH,EPOCH_MICROSECONDS,MEAN_MOTION,ECCENTRICITY,INCLINATION,RA_OF_ASC_NODE,ARG_OF_PERICENTER,MEAN_ANOMALY,EPHEMERIS_TYPE,ELEMENT_SET_NO,REV_AT_EPOCH,BSTAR,MEAN_MOTION_DOT,MEAN_MOTION_DDOT,FILE,TLE_LINE0,TLE_LINE1,TLE_LINE2,OBJECT_ID,OBJECT_NUMBER,SEMIMAJOR_AXIS,PERIOD,APOGEE,PERIGEE
"GENERATED VIA SPACETRACK.ORG API","JSPOC","14760","SL-8 R/B","ROCKET BODY","U","84019B","2016-01-12 10:48:13","948416","14.35747561","0.0028289","74.044","358.8905","344.0824","174.6895","0","999","66870","2.572e-05","4.8e-07","0","1979369","0 SL-8 R/B","1 14760U 84019B   16012.45016144  .00000048  00000-0  25720-4 0  9997","2 14760  74.0440 358.8905 0028289 344.0824 174.6895 14.35747561668701","1984-019B","14760","7150.720","100.296","792.813","752.356"
"GENERATED VIA SPACETRACK.ORG API","JSPOC","12319","COSMOS 1249","PAYLOAD","U","81021A","2016-01-12 10:48:29","40768","13.86586142","0.0036202","64.9651","342.3155","55.9737","87.5836","0","999","76697","3.9002e-06","-8.5e-07","0","1979438","0 COSMOS 1249","1 12319U 81021A   16012.45033612 -.00000085  00000-0  39002-5 0  9995","2 12319  64.9651 342.3155 0036202  55.9737  87.5836 13.86586142766977","1981-021A","12319","7318.756","103.852","967.116","914.125"
"GENERATED VIA SPACETRACK.ORG API","JSPOC","14943","SL-12 R/B(2)","ROCKET BODY","U","84041D","2016-01-12 10:48:30","309120","0.98626346","0.0014531","15.1354","349.3497","131.4443","3.552","0","999","8370","0","-5.7e-07","0","1979369","0 SL-12 R/B(2)","1 14943U 84041D   16012.45035080 -.00000057  00000-0  00000+0 0  9995","2 14943  15.1354 349.3497 0014531 131.4443   3.5520  0.98626346 83702","1984-041D","14943","42632.409","1460.056","36316.223","36192.325"
"GENERATED VIA SPACETRACK.ORG API","JSPOC","26389","ATLAS 2A CENTAUR R/B","ROCKET BODY","U","00034B","2016-01-12 10:48:44","714592","4.71667349","0.5572498","26.8778","91.0344","289.3788","20.3057","0","999","22148","0.0011099","8.578e-05","0","1979855","0 ATLAS 2A CENTAUR R/B","1 26389U 00034B   16012.45051753 +.00008578 +00000-0 +11099-2 0  9995","2 26389 026.8778 091.0344 5572498 289.3788 020.3057 04.71667349221485","2000-034B","26389","15019.125","305.299","17010.394","271.585"
"GENERATED VIA SPACETRACK.ORG API","JSPOC","17359","COSMOS 1816","PAYLOAD","U","87009A","2016-01-12 10:48:45","729792","13.74397113","0.0033037","82.9259","330.6941","22.6091","102.9659","0","999","45214","3.2439e-05","4.6e-07","0","1979415","0 COSMOS 1816","1 17359U 87009A   16012.45052928  .00000046  00000-0  32439-4 0  9999","2 17359  82.9259 330.6941 0033037  22.6091 102.9659 13.74397113452141","1987-009A","17359","7361.963","104.773","1008.150","959.507"
"GENERATED VIA SPACETRACK.ORG API","JSPOC","26583","SL-12 R/B(2)","ROCKET BODY","U","00067D","2016-01-12 10:48:51","443424","1.93857948","0.5511353","18.5428","26.5902","216.5048","88.9191","0","999","10738","0","-1.13e-06","0","1979855","0 SL-12 R/B(2)","1 26583U 00067D   16012.45059541 -.00000113 +00000-0 +00000-0 0  9996","2 26583 018.5428 026.5902 5511353 216.5048 088.9191 01.93857948107386","2000-067D","26583","27169.361","742.811","35765.220","5817.232"
"GENERATED VIA SPACETRACK.ORG API","JSPOC","1584","COSMOS 86","PAYLOAD","U","65073A","2016-01-12 10:49:10","421184","12.51861166","0.0212463","56.0596","23.0677","166.5848","358.2231","0","999","30049","-5.5011e-05","-1.06e-06","0","1979855","0 COSMOS 86","1  1584U 65073A   16012.45081506 -.00000106 +00000-0 -55011-4 0  9993","2  1584 056.0596 023.0677 0212463 166.5848 358.2231 12.51861166300499","1965-073A","1584","7834.856","115.028","1623.183","1290.260"
"GENERATED VIA SPACETRACK.ORG API","JSPOC","22931","THAICOM 1","PAYLOAD","U","93078B","2016-01-12 10:49:17","752224","0.99183728","0.0005883","5.5494","58.3928","149.5669","269.8461","0","999","839","0","4e-08","0","1979855","0 THAICOM 1","1 22931U 93078B   16012.45089991 +.00000004 +00000-0 +00000-0 0  9993","2 22931 005.5494 058.3928 0005883 149.5669 269.8461 00.99183728008398","1993-078B","22931","42472.538","1451.851","36119.390","36069.417"
"GENERATED VIA SPACETRACK.ORG API","JSPOC","25399","SAFIR 2","PAYLOAD","U","98043F","2016-01-12 10:49:56","188992","14.24523562","0.000219","98.5115","324.6809","32.1229","328.0084","0","999","90998","4.5673e-05","6.3e-07","0","1979427","0 SAFIR 2","1 25399U 98043F   16012.45134478  .00000063  00000-0  45673-4 0  9996","2 25399  98.5115 324.6809 0002190  32.1229 328.0084 14.24523562909986","1998-043F","25399","7188.231","101.086","811.671","808.522"
"GENERATED VIA SPACETRACK.ORG API","JSPOC","39155","COSMOS 2485 (GLONASS)","PAYLOAD","U","13019A","2016-01-12 10:50:36","602592","2.1310212","0.0014712","64.6598","201.7838","239.0781","160.4178","0","999","2112","0","9.4e-07","0","1979484","0 COSMOS 2485 (GLONASS)","1 39155U 13019A   16012.45181253  .00000094  00000-0  00000+0 0  9998","2 39155  64.6598 201.7838 0014712 239.0781 160.4178  2.13102120 21122","2013-019A","39155","25508.014","675.732","19167.407","19092.352"
"GENERATED VIA SPACETRACK.ORG API","JSPOC","22015","DELTA 2 R/B(1)","ROCKET BODY","U","92039B","2016-01-12 10:51:04","523616","15.14674613","0.0053397","20.7161","74.4851","85.869","274.785","0","999","31114","0.00019614","4.402e-05","0","1979855","0 DELTA 2 R/B(1)","1 22015U 92039B   16012.45213569 +.00004402 +00000-0 +19614-3 0  9992","2 22015 020.7161 074.4851 0053397 085.8690 274.7850 15.14674613311142","1992-039B","22015","6900.103","95.069","558.813","485.124"
"GENERATED VIA SPACETRACK.ORG API","JSPOC","39440","CUBEBUG 2","PAYLOAD","U","13066AA","2016-01-12 10:51:07","876800","14.74944276","0.008133","97.6968","65.4014","190.1921","169.7644","0","999","11517","0.00014436","9.71e-06","0","1979432","0 CUBEBUG 2","1 39440U 13066AA  16012.45217450  .00000971  00000-0  14436-3 0  9992","2 39440  97.6968  65.4014 0081330 190.1921 169.7644 14.74944276115175","2013-066AA","39440","7023.465","97.630","702.452","588.208"
"GENERATED VIA SPACETRACK.ORG API","JSPOC","40909","XW-2E","PAYLOAD","U","15049L","2016-01-12 10:51:14","241888","15.13448324","0.0013868","97.4534","23.0468","218.3623","279.5194","0","999","1730","0.00020834","3.667e-05","0","1979497","0 XW-2E","1 40909U 15049L   16012.45224817  .00003667  00000-0  20834-3 0  9996","2 40909  97.4534  23.0468 0013868 218.3623 279.5194 15.13448324 17303","2015-049L","40909","6903.830","95.146","535.269","516.121"
"GENERATED VIA SPACETRACK.ORG API","JSPOC","36834","YAOGAN 10","PAYLOAD","U","10038A","2016-01-12 10:51:22","574304","14.80627228","0.0001247","97.9024","9.5028","95.9162","264.2195","0","999","29327","4.0375e-05","2.58e-06","0","1979369","0 YAOGAN 10","1 36834U 10038A   16012.45234461  .00000258  00000-0  40375-4 0  9993","2 36834  97.9024   9.5028 0001247  95.9162 264.2195 14.80627228293279","2010-038A","36834","7005.481","97.256","628.220","626.473"
"GENERATED VIA SPACETRACK.ORG API","JSPOC","39177","COSMOS 2486","PAYLOAD","U","13028A","2016-01-12 10:51:24","321312","14.53131443","0.0007177","98.2049","86.1809","305.7608","54.291","0","999","13764","3.3262e-05","9.3e-07","0","1979442","0 COSMOS 2486","1 39177U 13028A   16012.45236483  .00000093  00000-0  33262-4 0  9998","2 39177  98.2049  86.1809 0007177 305.7608  54.2910 14.53131443137645","2013-028A","39177","7093.576","99.096","720.532","710.350"
"GENERATED VIA SPACETRACK.ORG API","JSPOC","38709","EXACTVIEW-1","PAYLOAD","U","12039C","2016-01-12 10:52:28","189920","14.23871996","0.0010759","99.0251","327.0089","313.5093","46.5199","0","999","18058","4.1491e-05","4.8e-07","0","1979434","0 EXACTVIEW-1","1 38709U 12039C   16012.45310405  .00000048  00000-0  41491-4 0  9999","2 38709  99.0251 327.0089 0010759 313.5093  46.5199 14.23871996180586","2012-039C","38709","7190.424","101.132","820.025","804.553"
"GENERATED VIA SPACETRACK.ORG API","JSPOC","2807","OPS 7218 (TRANSIT 16)","PAYLOAD","U","67048A","2016-01-12 10:53:33","633600","13.50099896","0.0021679","89.6456","123.9878","143.578","260.5104","0","999","39442","9.676e-05","7.2e-07","0","1979419","0 OPS 7218 (TRANSIT 16)","1 02807U 67048A   16012.45386150  .00000072  00000-0  96760-4 0  9995","2 02807  89.6456 123.9878 0021679 143.5780 260.5104 13.50099896394428","1967-048A","2807","7450.028","106.658","1088.043","1055.742"
"GENERATED VIA SPACETRACK.ORG API","JSPOC","5485","SHINSEI (MS-F2)","PAYLOAD","U","71080A","2016-01-12 10:53:45","605184","12.74116214","0.0640316","32.0547","20.9909","59.5877","306.6421","0","999","6341","5.0176e-05","3.7e-07","0","1979371","0 SHINSEI (MS-F2)","1 05485U 71080A   16012.45400006  .00000037  00000-0  50176-4 0  9990","2 05485  32.0547  20.9909 0640316  59.5877 306.6421 12.74116214 63410","1971-080A","5485","7743.354","113.019","1861.038","869.400"
"GENERATED VIA SPACETRACK.ORG API","JSPOC","13083","INTELSAT 504","PAYLOAD","U","82017A","2016-01-12 10:54:11","221056","0.99224139","0.0029201","15.1711","0.788","153.2501","209.7678","0","999","10400","0","-4.6e-07","0","1979379","0 INTELSAT 504","1 13083U 82017A   16012.45429654 -.00000046  00000-0  00000+0 0  9992","2 13083  15.1711   0.7880 0029201 153.2501 209.7678  0.99224139104000","1982-017A","13083","42461.006","1451.259","36206.861","35958.880"
"GENERATED VIA SPACETRACK.ORG API","JSPOC","4952","TANSEI 1 (MS-T1)","PAYLOAD","U","71011A","2016-01-12 10:54:28","578816","13.58454803","0.0079771","29.6689","11.2195","224.3109","275.3833","0","999","23024","1.4424e-05","7.8e-07","0","1979855","0 TANSEI 1 (MS-T1)","1  4952U 71011A   16012.45449744 +.00000078 +00000-0 +14424-4 0  9995","2  4952 029.6689 011.2195 0079771 224.3109 275.3833 13.58454803230246","1971-011A","4952","7419.449","106.002","1100.500","982.129"
